NORAD_CAT_ID,OBJECT_NAME,OBJECT_TYPE,EPOCH,MEAN_MOTION,ECCENTRICITY,INCLINATION,RA_OF_ASC_NODE,ARG_OF_PERICENTER,MEAN_ANOMALY,BSTAR,MEAN_MOTION_DOT,MEAN_MOTION_DDOT,TLE_LINE0,TLE_LINE1,TLE_LINE2,SEMIMAJOR_AXIS,PERIOD,APOGEE,PERIGEE,DECAYED
54070.0,STARLINK-5181,PAYLOAD,2024-01-18 21:17:40,15.08839847,0.0001303,53.2157,248.9746,101.7269,258.3869,0.0001809,2.592e-05,0.0,0 STARLINK-5181,1 54070U 22136V   24018.88726888  .00002592  00000-0  18090-3 0  9999,2 54070  53.2157 248.9746 0001303 101.7269 258.3869 15.08839847 68978,6917.881,95.438,540.647,538.844,0.0
54070.0,STARLINK-5181,PAYLOAD,2024-01-19 00:28:26,15.08844153,0.0001315,53.2152,248.3781,97.8336,262.2805,0.00024337,3.588e-05,0.0,0 STARLINK-5181,1 54070U 22136V   24019.01974781  .00003588  00000-0  24337-3 0  9999,2 54070  53.2152 248.3781 0001315  97.8336 262.2805 15.08844153 68991,6917.868,95.437,540.642,538.823,0.0
54070.0,STARLINK-5181,PAYLOAD,2024-01-19 19:33:03,15.0884642,0.0001339,53.2157,244.8099,93.7653,266.3493,0.00014113,1.959e-05,0.0,0 STARLINK-5181,1 54070U 22136V   24019.81462647  .00001959  00000-0  14113-3 0  9991,2 54070  53.2157 244.8099 0001339  93.7653 266.3493 15.08846420 69596,6917.861,95.437,540.652,538.799,0.0
54070.0,STARLINK-5181,PAYLOAD,2024-01-19 21:08:26,15.08848666,0.0001438,53.216,244.5124,80.996,279.1194,0.00017972,2.574e-05,0.0,0 STARLINK-5181,1 54070U 22136V   24019.88086594  .00002574  00000-0  17972-3 0  9991,2 54070  53.2160 244.5124 0001438  80.9960 279.1194 15.08848666 69128,6917.854,95.437,540.714,538.724,0.0
54070.0,STARLINK-5181,PAYLOAD,2024-01-20 14:37:41,15.08844581,0.0001761,53.2142,241.2497,47.8444,312.2697,4.3912e-05,4.11e-06,0.0,0 STARLINK-5181,1 54070U 22136V   24020.60950963  .00000411  00000-0  43912-4 0  9995,2 54070  53.2142 241.2497 0001761  47.8444 312.2697 15.08844581 69234,6917.866,95.437,540.95,538.513,0.0
54070.0,STARLINK-5181,PAYLOAD,2024-01-20 19:23:51,15.08841385,0.0001284,53.2151,240.3525,79.6402,280.4735,-1.2649e-05,-4.89e-06,0.0,0 STARLINK-5181,1 54070U 22136V   24020.80822917 -.00000489  00000-0 -12649-4 0  9994,2 54070  53.2151 240.3525 0001284  79.6402 280.4735 15.08841385 69747,6917.876,95.437,540.629,538.853,0.0
54070.0,STARLINK-5181,PAYLOAD,2024-01-20 20:59:14,15.08843915,0.0001245,53.2156,240.055,84.942,275.1714,4.349e-06,-2.19e-06,0.0,0 STARLINK-5181,1 54070U 22136V   24020.87446947 -.00000219  00000-0  43490-5 0  9995,2 54070  53.2156 240.0550 0001245  84.9420 275.1714 15.08843915 69270,6917.868,95.437,540.595,538.872,0.0
54070.0,STARLINK-5181,PAYLOAD,2024-01-21 00:10:00,15.08844939,0.000123,53.2157,239.4591,94.0061,266.1072,1.1994e-05,-9.7e-07,0.0,0 STARLINK-5181,1 54070U 22136V   24021.00694730 -.00000097  00000-0  11994-4 0  9993,2 54070  53.2157 239.4591 0001230  94.0061 266.1072 15.08844939 69291,6917.865,95.437,540.581,538.879,0.0
54070.0,STARLINK-5181,PAYLOAD,2024-01-21 20:50:02,15.08784057,0.0001522,53.2161,235.5937,98.4571,261.6593,0.00085565,0.00013335,0.0,0 STARLINK-5181,1 54070U 22136V   24021.86807954  .00013335  00000-0  85565-3 0  9993,2 54070  53.2161 235.5937 0001522  98.4571 261.6593 15.08784057 69422,6918.051,95.441,540.969,538.863,0.0
54070.0,STARLINK-5181,PAYLOAD,2024-01-22 00:00:47,15.08844195,0.0001424,53.2156,234.9989,77.2055,282.9096,4.8168e-05,4.79e-06,0.0,0 STARLINK-5181,1 54070U 22136V   24022.00054603  .00000479  00000-0  48168-4 0  9999,2 54070  53.2156 234.9989 0001424  77.2055 282.9096 15.08844195 69928,6917.868,95.437,540.718,538.747,0.0
54070.0,STARLINK-5181,PAYLOAD,2024-01-22 19:05:25,15.08835557,0.0001407,53.2157,231.4292,93.7641,266.3512,3.8776e-05,3.29e-06,0.0,0 STARLINK-5181,1 54070U 22136V   24022.79543256  .00000329  00000-0  38776-4 0  9990,2 54070  53.2157 231.4292 0001407  93.7641 266.3512 15.08835557 70049,6917.894,95.438,540.732,538.786,0.0
54070.0,STARLINK-5181,PAYLOAD,2024-01-23 04:37:44,15.08836765,0.0001272,53.2148,229.6468,92.5506,267.5632,3.0937e-05,2.04e-06,0.0,0 STARLINK-5181,1 54070U 22136V   24023.19287219  .00000204  00000-0  30937-4 0  9992,2 54070  53.2148 229.6468 0001272  92.5506 267.5632 15.08836765 69620,6917.89,95.438,540.635,538.875,0.0
54070.0,STARLINK-5181,PAYLOAD,2024-01-23 22:06:58,15.08841542,0.0001378,53.2154,226.375,93.2387,266.8763,5.0922e-05,5.23e-06,0.0,0 STARLINK-5181,1 54070U 22136V   24023.92150924  .00000523  00000-0  50922-4 0  9995,2 54070  53.2154 226.3750 0001378  93.2387 266.8763 15.08841542 69735,6917.876,95.437,540.694,538.787,0.0
54070.0,STARLINK-5181,PAYLOAD,2024-01-24 02:53:08,15.08833607,0.0001405,53.2152,225.4831,89.5314,270.5839,-1.7767e-05,-5.71e-06,0.0,0 STARLINK-5181,1 54070U 22136V   24024.12023598 -.00000571  00000-0 -17767-4 0  9999,2 54070  53.2152 225.4831 0001405  89.5314 270.5839 15.08833607 70249,6917.9,95.438,540.737,538.793,0.0
54070.0,STARLINK-5181,PAYLOAD,2024-01-24 14:00:50,15.08836924,0.000132,53.2154,223.4015,93.3744,266.7399,4.5272e-05,4.33e-06,0.0,0 STARLINK-5181,1 54070U 22136V   24024.58391456  .00000433  00000-0  45272-4 0  9997,2 54070  53.2154 223.4015 0001320  93.3744 266.7399 15.08836924 69835,6917.89,95.438,540.668,538.842,0.0
54070.0,STARLINK-5181,PAYLOAD,2024-01-24 20:22:22,15.08838343,0.0001303,53.2152,222.2118,96.7628,263.3513,5.2378e-05,5.46e-06,0.0,0 STARLINK-5181,1 54070U 22136V   24024.84887347  .00000546  00000-0  52378-4 0  9995,2 54070  53.2152 222.2118 0001303  96.7628 263.3513 15.08838343 69875,6917.885,95.438,540.652,538.849,0.0
54070.0,STARLINK-5181,PAYLOAD,2024-01-24 21:57:45,15.08838534,0.0001304,53.2154,221.9146,93.5033,266.6109,8.9275e-05,1.133e-05,0.0,0 STARLINK-5181,1 54070U 22136V   24024.91511259  .00001133  00000-0  89275-4 0  9998,2 54070  53.2154 221.9146 0001304  93.5033 266.6109 15.08838534 70365,6917.885,95.438,540.652,538.848,0.0
54070.0,STARLINK-5181,PAYLOAD,2024-01-25 20:13:09,15.08838291,0.0001483,53.2154,217.7512,101.733,258.3829,3.4302e-05,2.58e-06,0.0,0 STARLINK-5181,1 54070U 22136V   24025.84247650  .00000258  00000-0  34302-4 0  9990,2 54070  53.2154 217.7512 0001483 101.7330 258.3829 15.08838291 70025,6917.886,95.438,540.777,538.725,0.0
54070.0,STARLINK-5181,PAYLOAD,2024-01-26 18:28:33,15.08845273,0.000123,53.2154,213.5883,89.6053,270.508,0.00011538,1.549e-05,0.0,0 STARLINK-5181,1 54070U 22136V   24026.76983048  .00001549  00000-0  11538-3 0  9999,2 54070  53.2154 213.5883 0001230  89.6053 270.5080 15.08845273 70647,6917.864,95.437,540.58,538.878,0.0
54070.0,STARLINK-5181,PAYLOAD,2024-01-27 11:57:48,15.0883917,0.0001312,53.2152,210.3173,85.0598,275.0544,6.8787e-05,8.07e-06,0.0,0 STARLINK-5181,1 54070U 22136V   24027.49847660  .00000807  00000-0  68787-4 0  9994,2 54070  53.2152 210.3173 0001312  85.0598 275.0544 15.08839170 70753,6917.883,95.438,540.656,538.84,0.0
54070.0,STARLINK-5181,PAYLOAD,2024-01-27 18:19:21,15.08838299,0.0001278,53.2156,209.127,88.3747,271.7391,5.2157e-05,5.42e-06,0.0,0 STARLINK-5181,1 54070U 22136V   24027.76343757  .00000542  00000-0  52157-4 0  9992,2 54070  53.2156 209.1270 0001278  88.3747 271.7391 15.08838299 70310,6917.886,95.438,540.635,538.866,0.0
54070.0,STARLINK-5181,PAYLOAD,2024-01-28 18:10:07,15.08843439,0.0001488,53.2172,204.6682,79.4406,280.6754,6.077e-05,6.79e-06,0.0,0 STARLINK-5181,1 54070U 22136V   24028.75703384  .00000679  00000-0  60770-4 0  9999,2 54070  53.2172 204.6682 0001488  79.4406 280.6754 15.08843439 70944,6917.87,95.437,540.764,538.705,0.0
54070.0,STARLINK-5181,PAYLOAD,2024-01-29 11:39:22,15.08841316,0.0001306,53.2162,201.3958,79.486,280.628,7.2986e-05,8.74e-06,0.0,0 STARLINK-5181,1 54070U 22136V   24029.48567396  .00000874  00000-0  72986-4 0  9990,2 54070  53.2162 201.3958 0001306  79.4860 280.6280 15.08841316 70571,6917.876,95.437,540.645,538.838,0.0
54070.0,STARLINK-5181,PAYLOAD,2024-01-30 11:30:09,15.08838482,0.000127,53.2154,196.9354,86.0035,274.1102,1.58e-05,-3.6e-07,0.0,0 STARLINK-5181,1 54070U 22136V   24030.47927627 -.00000036  00000-0  15800-4 0  9991,2 54070  53.2154 196.9354 0001270  86.0035 274.1102 15.08838482 71201,6917.885,95.438,540.629,538.871,0.0
54070.0,STARLINK-5181,PAYLOAD,2024-01-30 14:40:55,15.08838585,0.0001213,53.2159,196.3387,87.8063,272.3068,2.2638e-05,7.2e-07,0.0,0 STARLINK-5181,1 54070U 22136V   24030.61175615  .00000072  00000-0  22638-4 0  9995,2 54070  53.2159 196.3387 0001213  87.8063 272.3068 15.08838585 70746,6917.885,95.438,540.589,538.911,0.0
54070.0,STARLINK-5181,PAYLOAD,2024-01-30 17:51:41,15.08839992,0.0001309,53.2167,195.7441,91.1125,269.0017,3.1342e-05,2.11e-06,0.0,0 STARLINK-5181,1 54070U 22136V   24030.74423504  .00000211  00000-0  31342-4 0  9999,2 54070  53.2167 195.7441 0001309  91.1125 269.0017 15.08839992 70764,6917.88,95.438,540.651,538.84,0.0
54070.0,STARLINK-5181,PAYLOAD,2024-01-31 11:20:56,15.0883494,0.0001393,53.2171,192.4756,94.9031,265.2121,2.9884e-05,1.88e-06,0.0,0 STARLINK-5181,1 54070U 22136V   24031.47287918  .00000188  00000-0  29884-4 0  9998,2 54070  53.2171 192.4756 0001393  94.9031 265.2121 15.08834940 70876,6917.896,95.438,540.725,538.797,0.0
54070.0,STARLINK-5181,PAYLOAD,2024-02-01 09:36:20,15.08835382,0.0001392,53.2173,188.3123,95.1263,264.9889,3.0747e-05,2.01e-06,0.0,0 STARLINK-5181,1 54070U 22136V   24032.40024139  .00000201  00000-0  30747-4 0  9992,2 54070  53.2173 188.3123 0001392  95.1263 264.9889 15.08835382 71496,6917.895,95.438,540.722,538.797,0.0
54070.0,STARLINK-5181,PAYLOAD,2024-02-01 14:22:30,15.08835507,0.0001357,53.2167,187.4195,89.7086,270.4061,2.8685e-05,1.69e-06,0.0,0 STARLINK-5181,1 54070U 22136V   24032.59896230  .00000169  00000-0  28685-4 0  9992,2 54070  53.2167 187.4195 0001357  89.7086 270.4061 15.08835507 71045,6917.894,95.438,540.698,538.82,0.0
54070.0,STARLINK-5181,PAYLOAD,2024-02-02 14:13:17,15.08836793,0.000131,53.2166,182.9586,90.2844,269.8298,5.7559e-05,6.28e-06,0.0,0 STARLINK-5181,1 54070U 22136V   24033.59256280  .00000628  00000-0  57559-4 0  9990,2 54070  53.2166 182.9586 0001310  90.2844 269.8298 15.08836793 71194,6917.89,95.438,540.661,538.849,0.0
